{"spaceTrack"{"CCSDS_OMM_VERS":"2.0","COMMENT":"GENERATED VIA SPACE-TRACK.ORG API","CREATION_DATE":"2021-01-26T13:16:10","ORIGINATOR":"18 SPCS","OBJECT_NAME":"STARLINK-1657","OBJECT_ID":"2020-062AF","CENTER_NAME":"EARTH","REF_FRAME":"TEME","TIME_SYSTEM":"UTC","MEAN_ELEMENT_THEORY":"SGP4","EPOCH":"2021-01-26T12:00:00.999648","MEAN_MOTION":15.06415033,"ECCENTRICITY":0.0001853,"INCLINATION":53.057,"RA_OF_ASC_NODE":123.234,"ARG_OF_PERICENTER":60.1719,"MEAN_ANOMALY":107.5671,"EPHEMERIS_TYPE":0,"CLASSIFICATION_TYPE":"U","NORAD_CAT_ID":46354,"ELEMENT_SET_NO":999,"REV_AT_EPOCH":2290,"BSTAR":-0.0014232,"MEAN_MOTION_DOT":-0.00021426,"MEAN_MOTION_DDOT":0,"SEMIMAJOR_AXIS":6925.302,"PERIOD":95.591,"APOAPSIS":548.451,"PERIAPSIS":545.884,"OBJECT_TYPE":"PAYLOAD","RCS_SIZE":"LARGE","COUNTRY_CODE":"US","LAUNCH_DATE":"2020-09-03","SITE":"AFETR","DECAY_DATE":null,"DECAYED":0,"FILE":2939773,"GP_ID":170383155,"TLE_LINE0":"0 STARLINK-1657","TLE_LINE1":"1 46354U 20062AF  21026.50001157 -.00021426  00000-0 -14232-2 0  9993","TLE_LINE2":"2 46354  53.0570 123.2340 0001853  60.1719 107.5671 15.06415033 22908"},"version":"v1.0","launch":"5ef6a1e90059c33cee4a828a","longitude":178,"latitude":-52.00796845601984,"height_km":566.4205747178148,"velocity_kms":7.577089406940781,"id":"5f5a9c1e2fd30c00065e5ed0"}
{"spaceTrack"{"CCSDS_OMM_VERS":"2.0","COMMENT":"GENERATED VIA SPACE-TRACK.ORG API","CREATION_DATE":"2021-01-26T02:30:00","ORIGINATOR":"18 SPCS","OBJECT_NAME":"STARLINK-1758","OBJECT_ID":"2020-062BH","CENTER_NAME":"EARTH","REF_FRAME":"TEME","TIME_SYSTEM":"UTC","MEAN_ELEMENT_THEORY":"SGP4","EPOCH":"2021-01-25T22:00:00.999936","MEAN_MOTION":15.06402428,"ECCENTRICITY":0.0001041,"INCLINATION":53.0595,"RA_OF_ASC_NODE":105.8464,"ARG_OF_PERICENTER":87.4381,"MEAN_ANOMALY":265.1356,"EPHEMERIS_TYPE":0,"CLASSIFICATION_TYPE":"U","NORAD_CAT_ID":46380,"ELEMENT_SET_NO":999,"REV_AT_EPOCH":175,"BSTAR":-0.0020079,"MEAN_MOTION_DOT":-0.00030065,"MEAN_MOTION_DDOT":0,"SEMIMAJOR_AXIS":6925.341,"PERIOD":95.592,"APOAPSIS":547.927,"PERIAPSIS":546.485,"OBJECT_TYPE":"PAYLOAD","RCS_SIZE":"LARGE","COUNTRY_CODE":"US","LAUNCH_DATE":"2020-09-03","SITE":"AFETR","DECAY_DATE":null,"DECAYED":0,"FILE":2939303,"GP_ID":170371568,"TLE_LINE0":"0 STARLINK-1758","TLE_LINE1":"1 46380U 20062BH  21025.91667824 -.00030065  00000-0 -20079-2 0  9990","TLE_LINE2":"2 46380  53.0595 105.8464 0001041  87.4381 265.1356 15.06402428  1758"},"version":"v1.0","launch":"5ef6a1e90059c33cee4a828a","longitude":164,"latitude":7.5384705413521935,"height_km":547.4314482399477,"velocity_kms":7.5901510732563695,"id":"5f5a9c1e2fd30c00065e5ed4"}
{"spaceTrack"{"CCSDS_OMM_VERS":"2.0","COMMENT":"GENERATED VIA SPACE-TRACK.ORG API","CREATION_DATE":"2021-01-26T13:26:11","ORIGINATOR":"18 SPCS","OBJECT_NAME":"STARLINK-1742","OBJECT_ID":"2020-062BD","CENTER_NAME":"EARTH","REF_FRAME":"TEME","TIME_SYSTEM":"UTC","MEAN_ELEMENT_THEORY":"SGP4","EPOCH":"2021-01-26T12:00:00.999648","MEAN_MOTION":15.39386538,"ECCENTRICITY":0.0001296,"INCLINATION":52.9942,"RA_OF_ASC_NODE":80.0408,"ARG_OF_PERICENTER":57.2678,"MEAN_ANOMALY":262.9203,"EPHEMERIS_TYPE":0,"CLASSIFICATION_TYPE":"U","NORAD_CAT_ID":46376,"ELEMENT_SET_NO":999,"REV_AT_EPOCH":2351,"BSTAR":-0.029729,"MEAN_MOTION_DOT":-0.01082983,"MEAN_MOTION_DDOT":0,"SEMIMAJOR_AXIS":6826.059,"PERIOD":93.544,"APOAPSIS":448.809,"PERIAPSIS":447.04,"OBJECT_TYPE":"PAYLOAD","RCS_SIZE":"LARGE","COUNTRY_CODE":"US","LAUNCH_DATE":"2020-09-03","SITE":"AFETR","DECAY_DATE":null,"DECAYED":0,"FILE":2939831,"GP_ID":170384994,"TLE_LINE0":"0 STARLINK-1742","TLE_LINE1":"1 46376U 20062BD  21026.50001157 -.01082983  00000-0 -29729-1 0  9999","TLE_LINE2":"2 46376  52.9942  80.0408 0001296  57.2678 262.9203 15.39386538 23518"},"version":"v1.0","launch":"5ef6a1e90059c33cee4a828a","longitude":49,"latitude":48.66960300846039,"height_km":453.5221524854296,"velocity_kms":7.646894572641594,"id":"5f5a9c1e2fd30c00065e5ed2"}
{"spaceTrack"{"CCSDS_OMM_VERS":"2.0","COMMENT":"GENERATED VIA SPACE-TRACK.ORG API","CREATION_DATE":"2021-01-26T13:26:11","ORIGINATOR":"18 SPCS","OBJECT_NAME":"STARLINK-1756","OBJECT_ID":"2020-062BG","CENTER_NAME":"EARTH","REF_FRAME":"TEME","TIME_SYSTEM":"UTC","MEAN_ELEMENT_THEORY":"SGP4","EPOCH":"2021-01-26T12:00:00.999648","MEAN_MOTION":15.56031991,"ECCENTRICITY":0.0009686,"INCLINATION":52.9977,"RA_OF_ASC_NODE":79.6265,"ARG_OF_PERICENTER":285.8493,"MEAN_ANOMALY":283.0452,"EPHEMERIS_TYPE":0,"CLASSIFICATION_TYPE":"U","NORAD_CAT_ID":46379,"ELEMENT_SET_NO":999,"REV_AT_EPOCH":2351,"BSTAR":0.0005019,"MEAN_MOTION_DOT":0.0003532,"MEAN_MOTION_DDOT":0,"SEMIMAJOR_AXIS":6777.291,"PERIOD":92.543,"APOAPSIS":405.721,"PERIAPSIS":392.592,"OBJECT_TYPE":"PAYLOAD","RCS_SIZE":"LARGE","COUNTRY_CODE":"US","LAUNCH_DATE":"2020-09-03","SITE":"AFETR","DECAY_DATE":null,"DECAYED":0,"FILE":2939833,"GP_ID":170384530,"TLE_LINE0":"0 STARLINK-1756","TLE_LINE1":"1 46379U 20062BG  21026.50001157  .00035320  00000-0  50190-3 0  9990","TLE_LINE2":"2 46379  52.9977  79.6265 0009686 285.8493 283.0452 15.56031991 23518"},"version":"v1.0","launch":"5ef6a1e90059c33cee4a828a","longitude":58,"latitude":-25.537861328961043,"height_km":401.63123219783574,"velocity_kms":7.672332527124247,"id":"5f5a9c1e2fd30c00065e5ed7"}
{"spaceTrack"{"CCSDS_OMM_VERS":"2.0","COMMENT":"GENERATED VIA SPACE-TRACK.ORG API","CREATION_DATE":"2021-01-26T13:26:11","ORIGINATOR":"18 SPCS","OBJECT_NAME":"STARLINK-1757","OBJECT_ID":"2020-062Q","CENTER_NAME":"EARTH","REF_FRAME":"TEME","TIME_SYSTEM":"UTC","MEAN_ELEMENT_THEORY":"SGP4","EPOCH":"2021-01-26T12:00:00.999648","MEAN_MOTION":14.9908292,"ECCENTRICITY":0.0005829,"INCLINATION":53.0948,"RA_OF_ASC_NODE":99.7681,"ARG_OF_PERICENTER":343.8893,"MEAN_ANOMALY":354.0373,"EPHEMERIS_TYPE":0,"CLASSIFICATION_TYPE":"U","NORAD_CAT_ID":46339,"ELEMENT_SET_NO":999,"REV_AT_EPOCH":2324,"BSTAR":-0.00055217,"MEAN_MOTION_DOT":-0.00007034,"MEAN_MOTION_DDOT":0,"SEMIMAJOR_AXIS":6947.866,"PERIOD":96.059,"APOAPSIS":573.78,"PERIAPSIS":565.681,"OBJECT_TYPE":"PAYLOAD","RCS_SIZE":"LARGE","COUNTRY_CODE":"US","LAUNCH_DATE":"2020-09-03","SITE":"AFETR","DECAY_DATE":null,"DECAYED":0,"FILE":2939838,"GP_ID":170384505,"TLE_LINE0":"0 STARLINK-1757","TLE_LINE1":"1 46339U 20062Q   21026.50001157 -.00007034  00000-0 -55217-3 0  9994","TLE_LINE2":"2 46339  53.0948  99.7681 0005829 343.8893 354.0373 14.99082920 23248"},"version":"v1.0","launch":"5ef6a1e90059c33cee4a828a","longitude":126,"latitude":47.11836321566488,"height_km":574.3320338368467,"velocity_kms":7.579691184189603,"id":"5f5a9c1e2fd30c00065e5ed6"}
{"spaceTrack"{"CCSDS_OMM_VERS":"2.0","COMMENT":"GENERATED VIA SPACE-TRACK.ORG API","CREATION_DATE":"2021-01-26T06:26:10","ORIGINATOR":"18 SPCS","OBJECT_NAME":"STARLINK-1711","OBJECT_ID":"2020-062BB","CENTER_NAME":"EARTH","REF_FRAME":"TEME","TIME_SYSTEM":"UTC","MEAN_ELEMENT_THEORY":"SGP4","EPOCH":"2021-01-26T04:00:00.999936","MEAN_MOTION":15.53279132,"ECCENTRICITY":0.0001042,"INCLINATION":52.9994,"RA_OF_ASC_NODE":81.483,"ARG_OF_PERICENTER":27.9883,"MEAN_ANOMALY":12.4314,"EPHEMERIS_TYPE":0,"CLASSIFICATION_TYPE":"U","NORAD_CAT_ID":46374,"ELEMENT_SET_NO":999,"REV_AT_EPOCH":2345,"BSTAR":0.00031778,"MEAN_MOTION_DOT":0.0001995,"MEAN_MOTION_DDOT":0,"SEMIMAJOR_AXIS":6785.297,"PERIOD":92.707,"APOAPSIS":407.869,"PERIAPSIS":406.455,"OBJECT_TYPE":"PAYLOAD","RCS_SIZE":"LARGE","COUNTRY_CODE":"US","LAUNCH_DATE":"2020-09-03","SITE":"AFETR","DECAY_DATE":null,"DECAYED":0,"FILE":2939365,"GP_ID":170374456,"TLE_LINE0":"0 STARLINK-1711","TLE_LINE1":"1 46374U 20062BB  21026.16667824  .00019950  00000-0  31778-3 0  9998","TLE_LINE2":"2 46374  52.9994  81.4830 0001042  27.9883  12.4314 15.53279132 23459"},"version":"v1.0","launch":"5ef6a1e90059c33cee4a828a","longitude":82,"latitude":-32.98383037064243,"height_km":418.07356928780246,"velocity_kms":7.659705241766058,"id":"5f5a9c1e2fd30c00065e5ed3"}
{"spaceTrack"{"CCSDS_OMM_VERS":"2.0","COMMENT":"GENERATED VIA SPACE-TRACK.ORG API","CREATION_DATE":"2021-01-26T13:16:10","ORIGINATOR":"18 SPCS","OBJECT_NAME":"STARLINK-1661","OBJECT_ID":"2020-062AG","CENTER_NAME":"EARTH","REF_FRAME":"TEME","TIME_SYSTEM":"UTC","MEAN_ELEMENT_THEORY":"SGP4","EPOCH":"2021-01-26T12:00:00.999648","MEAN_MOTION":15.06420038,"ECCENTRICITY":0.0001547,"INCLINATION":53.0573,"RA_OF_ASC_NODE":123.2315,"ARG_OF_PERICENTER":63.4667,"MEAN_ANOMALY":244.2944,"EPHEMERIS_TYPE":0,"CLASSIFICATION_TYPE":"U","NORAD_CAT_ID":46355,"ELEMENT_SET_NO":999,"REV_AT_EPOCH":2291,"BSTAR":-0.0014103,"MEAN_MOTION_DOT":-0.00021237,"MEAN_MOTION_DDOT":0,"SEMIMAJOR_AXIS":6925.287,"PERIOD":95.591,"APOAPSIS":548.223,"PERIAPSIS":546.081,"OBJECT_TYPE":"PAYLOAD","RCS_SIZE":"LARGE","COUNTRY_CODE":"US","LAUNCH_DATE":"2020-09-03","SITE":"AFETR","DECAY_DATE":null,"DECAYED":0,"FILE":2939771,"GP_ID":170382938,"TLE_LINE0":"0 STARLINK-1661","TLE_LINE1":"1 46355U 20062AG  21026.50001157 -.00021237  00000-0 -14103-2 0  9991","TLE_LINE2":"2 46355  53.0573 123.2315 0001547  63.4667 244.2944 15.06420038 22916"},"version":"v1.0","launch":"5ef6a1e90059c33cee4a828a","longitude":30,"latitude":30.68546307737287,"height_km":547.9987037296632,"velocity_kms":7.592585891396902,"id":"5f5a9c1e2fd30c00065e5ed5"}
